[{"OBJECT_NAME":"IRIDIUM 137","OBJECT_ID":"2017-083G","EPOCH":"2026-03-09T20:35:55.284000","MEAN_MOTION":14.34217602,"ECCENTRICITY":0.00024008,"INCLINATION":86.4028,"RA_OF_ASC_NODE":3.6635,"ARG_OF_PERICENTER":94.3456,"MEAN_ANOMALY":265.8014,"EPHEMERIS_TYPE":0,"CLASSIFICATION_TYPE":"U","NORAD_CAT_ID":43076,"ELEMENT_SET_NO":999,"REV_AT_EPOCH":42993,"BSTAR":5.494784e-6,"MEAN_MOTION_DOT":3.5e-7,"MEAN_MOTION_DDOT":0},{"OBJECT_NAME":"METEOR 2-5 DEB","OBJECT_ID":"1979-095BS","EPOCH":"2026-03-07T05:51:36.256032","MEAN_MOTION":14.40468268,"ECCENTRICITY":0.0029888,"INCLINATION":81.1968,"RA_OF_ASC_NODE":239.5089,"ARG_OF_PERICENTER":323.2904,"MEAN_ANOMALY":154.1482,"EPHEMERIS_TYPE":0,"CLASSIFICATION_TYPE":"U","NORAD_CAT_ID":38272,"ELEMENT_SET_NO":999,"REV_AT_EPOCH":64624,"BSTAR":0.0032833,"MEAN_MOTION_DOT":0.00010514,"MEAN_MOTION_DDOT":0}]
